{"type": "FeatureCollection", "features": [ {"type": "Feature", "properties": {"norad_id": 33153, "name": "INTELSAT 25 (IS-25)", "group": "intelsat", "lat": 1.1486985240490608, "lon": 113.84946964342129, "alt_km": 35804.46555941994, "timestamp": "2025-12-03T04:52:29.309062+00:00", "meta": {"OBJECT_NAME": "INTELSAT 25 (IS-25)", "OBJECT_ID": "2008-034A", "EPOCH": "2025-12-02T17:03:32.593824", "MEAN_MOTION": 1.00271606, "ECCENTRICITY": 0.0005301, "INCLINATION": 2.1997, "RA_OF_ASC_NODE": 82.7616, "ARG_OF_PERICENTER": 176.4276, "MEAN_ANOMALY": 37.016, "EPHEMERIS_TYPE": 0, "CLASSIFICATION_TYPE": "U", "NORAD_CAT_ID": 33153, "ELEMENT_SET_NO": 999, "REV_AT_EPOCH": 6372, "BSTAR": 0, "MEAN_MOTION_DOT": -2.04e-06, "MEAN_MOTION_DDOT": 0}, "tle": {"line1": "1 33153U 08034A   25336.71079391 -.00000204  00000+0  00000+0 0  9991", "line2": "2 33153   2.1997  82.7616 0005301 176.4276  37.0160  1.00271606 63725"}}, "geometry": {"type": "Point", "coordinates": [113.84946964342129, 1.1486985240490608]}}, {"type": "Feature", "properties": {"norad_id": 33376, "name": "GALAXY 19 (G-19)", "group": "intelsat", "lat": 0.028736894908319842, "lon": 48.42236857254922, "alt_km": 35798.22741154706, "timestamp": "2025-12-03T04:52:29.309074+00:00", "meta": {"OBJECT_NAME": "GALAXY 19 (G-19)", "OBJECT_ID": "2008-045A", "EPOCH": "2025-12-02T13:19:27.672960", "MEAN_MOTION": 1.00270895, "ECCENTRICITY": 0.00034225, "INCLINATION": 0.0185, "RA_OF_ASC_NODE": 11.8954, "ARG_OF_PERICENTER": 251.6033, "MEAN_ANOMALY": 271.034, "EPHEMERIS_TYPE": 0, "CLASSIFICATION_TYPE": "U", "NORAD_CAT_ID": 33376, "ELEMENT_SET_NO": 999, "REV_AT_EPOCH": 6293, "BSTAR": 0, "MEAN_MOTION_DOT": -1.19e-06, "MEAN_MOTION_DDOT": 0}, "tle": {"line1": "1 33376U 08045A   25336.55518140 -.00000119  00000+0  00000+0 0  9997", "line2": "2 33376   0.0185  11.8954 0003422 251.6033 271.0340  1.00270895 62936"}}, "geometry": {"type": "Point", "coordinates": [48.42236857254922, 0.028736894908319842]}}, {"type": "Feature", "properties": {"norad_id": 35493, "name": "FM-5", "group": "intelsat", "lat": 0.036441271437670494, "lon": 59.24694980990979, "alt_km": 35787.60367285811, "timestamp": "2025-12-03T04:52:29.309086+00:00", "meta": {"OBJECT_NAME": "FM-5", "OBJECT_ID": "2009-034A", "EPOCH": "2025-12-02T08:19:38.699616", "MEAN_MOTION": 1.00271266, "ECCENTRICITY": 0.00013427, "INCLINATION": 0.0253, "RA_OF_ASC_NODE": 282.057, "ARG_OF_PERICENTER": 240.7007, "MEAN_ANOMALY": 307.4775, "EPHEMERIS_TYPE": 0, "CLASSIFICATION_TYPE": "U", "NORAD_CAT_ID": 35493, "ELEMENT_SET_NO": 999, "REV_AT_EPOCH": 4467, "BSTAR": 0, "MEAN_MOTION_DOT": -1.8e-06, "MEAN_MOTION_DDOT": 0}, "tle": {"line1": "1 35493U 09034A   25336.34697569 -.00000180  00000+0  00000+0 0  9996", "line2": "2 35493   0.0253 282.0570 0001342 240.7007 307.4775  1.00271266 44679"}}, "geometry": {"type": "Point", "coordinates": [59.24694980990979, 0.036441271437670494]}}, {"type": "Feature", "properties": {"norad_id": 36097, "name": "INTELSAT 14 (IS-14)", "group": "intelsat", "lat": 0.0181390479548397, "lon": 100.38317555475945, "alt_km": 35795.982501241306, "timestamp": "2025-12-03T04:52:29.309098+00:00", "meta": {"OBJECT_NAME": "INTELSAT 14 (IS-14)", "OBJECT_ID": "2009-064A", "EPOCH": "2025-12-02T16:59:40.463808", "MEAN_MOTION": 1.00271665, "ECCENTRICITY": 0.0002609, "INCLINATION": 0.0179, "RA_OF_ASC_NODE": 300.9534, "ARG_OF_PERICENTER": 312.0604, "MEAN_ANOMALY": 28.7185, "EPHEMERIS_TYPE": 0, "CLASSIFICATION_TYPE": "U", "NORAD_CAT_ID": 36097, "ELEMENT_SET_NO": 999, "REV_AT_EPOCH": 5863, "BSTAR": 0, "MEAN_MOTION_DOT": -2.53e-06, "MEAN_MOTION_DDOT": 0}, "tle": {"line1": "1 36097U 09064A   25336.70810722 -.00000253  00000+0  00000+0 0  9999", "line2": "2 36097   0.0179 300.9534 0002609 312.0604  28.7185  1.00271665 58632"}}, "geometry": {"type": "Point", "coordinates": [100.38317555475945, 0.0181390479548397]}}, {"type": "Feature", "properties": {"norad_id": 36106, "name": "INTELSAT 15 (IS-15)", "group": "intelsat", "lat": -0.039110397529782286, "lon": -129.45513450545653, "alt_km": 35776.94067930019, "timestamp": "2025-12-03T04:52:29.309110+00:00", "meta": {"OBJECT_NAME": "INTELSAT 15 (IS-15)", "OBJECT_ID": "2009-067A", "EPOCH": "2025-12-02T20:27:15.180192", "MEAN_MOTION": 1.00270477, "ECCENTRICITY": 0.0002422, "INCLINATION": 0.0143, "RA_OF_ASC_NODE": 322.7417, "ARG_OF_PERICENTER": 289.5773, "MEAN_ANOMALY": 211.6096, "EPHEMERIS_TYPE": 0, "CLASSIFICATION_TYPE": "U", "NORAD_CAT_ID": 36106, "ELEMENT_SET_NO": 999, "REV_AT_EPOCH": 3926, "BSTAR": 0, "MEAN_MOTION_DOT": -1.65e-06, "MEAN_MOTION_DDOT": 0}, "tle": {"line1": "1 36106U 09067A   25336.85225903 -.00000165  00000+0  00000+0 0  9992", "line2": "2 36106   0.0143 322.7417 0002422 289.5773 211.6096  1.00270477 39266"}}, "geometry": {"type": "Point", "coordinates": [-129.45513450545653, -0.039110397529782286]}}, {"type": "Feature", "properties": {"norad_id": 36131, "name": "DIRECTV 12", "group": "intelsat", "lat": -0.002792210893184625, "lon": 42.68206140993251, "alt_km": 35786.682266388256, "timestamp": "2025-12-03T04:52:29.309122+00:00", "meta": {"OBJECT_NAME": "DIRECTV 12", "OBJECT_ID": "2009-075A", "EPOCH": "2025-12-02T15:00:23.376384", "MEAN_MOTION": 1.00271854, "ECCENTRICITY": 1.52e-05, "INCLINATION": 0.0116, "RA_OF_ASC_NODE": 83.0864, "ARG_OF_PERICENTER": 121.693, "MEAN_ANOMALY": 349.335, "EPHEMERIS_TYPE": 0, "CLASSIFICATION_TYPE": "U", "NORAD_CAT_ID": 36131, "ELEMENT_SET_NO": 999, "REV_AT_EPOCH": 4458, "BSTAR": 0, "MEAN_MOTION_DOT": -8.3e-07, "MEAN_MOTION_DDOT": 0}, "tle": {"line1": "1 36131U 09075A   25336.62527056 -.00000083  00000+0  00000+0 0  9997", "line2": "2 36131   0.0116  83.0864 0000152 121.6930 349.3350  1.00271854 44589"}}, "geometry": {"type": "Point", "coordinates": [42.68206140993251, -0.002792210893184625]}}, {"type": "Feature", "properties": {"norad_id": 36397, "name": "INTELSAT 16 (IS-16)", "group": "intelsat", "lat": 0.03346734578422444, "lon": 69.19692171631448, "alt_km": 35796.44119940064, "timestamp": "2025-12-03T04:52:29.309133+00:00", "meta": {"OBJECT_NAME": "INTELSAT 16 (IS-16)", "OBJECT_ID": "2010-006A", "EPOCH": "2025-12-02T20:22:38.728704", "MEAN_MOTION": 1.0027045, "ECCENTRICITY": 0.0002358, "INCLINATION": 0.0134, "RA_OF_ASC_NODE": 307.8734, "ARG_OF_PERICENTER": 306.3519, "MEAN_ANOMALY": 47.1877, "EPHEMERIS_TYPE": 0, "CLASSIFICATION_TYPE": "U", "NORAD_CAT_ID": 36397, "ELEMENT_SET_NO": 999, "REV_AT_EPOCH": 5768, "BSTAR": 0, "MEAN_MOTION_DOT": -2.25e-06, "MEAN_MOTION_DDOT": 0}, "tle": {"line1": "1 36397U 10006A   25336.84905936 -.00000225  00000+0  00000+0 0  9996", "line2": "2 36397   0.0134 307.8734 0002358 306.3519  47.1877  1.00270450 57684"}}, "geometry": {"type": "Point", "coordinates": [69.19692171631448, 0.03346734578422444]}}, {"type": "Feature", "properties": {"norad_id": 37185, "name": "XM-5", "group": "intelsat", "lat": 0.07807104904381273, "lon": 30.194343554809745, "alt_km": 35789.938682969536, "timestamp": "2025-12-03T04:52:29.309145+00:00", "meta": {"OBJECT_NAME": "XM-5", "OBJECT_ID": "2010-053A", "EPOCH": "2025-12-02T10:37:38.767584", "MEAN_MOTION": 1.00270481, "ECCENTRICITY": 0.0001582, "INCLINATION": 0.0649, "RA_OF_ASC_NODE": 272.7549, "ARG_OF_PERICENTER": 239.5567, "MEAN_ANOMALY": 323.4678, "EPHEMERIS_TYPE": 0, "CLASSIFICATION_TYPE": "U", "NORAD_CAT_ID": 37185, "ELEMENT_SET_NO": 999, "REV_AT_EPOCH": 5551, "BSTAR": 0, "MEAN_MOTION_DOT": -2e-08, "MEAN_MOTION_DDOT": 0}, "tle": {"line1": "1 37185U 10053A   25336.44280981 -.00000002  00000+0  00000+0 0  9999", "line2": "2 37185   0.0649 272.7549 0001582 239.5567 323.4678  1.00270481 55516"}}, "geometry": {"type": "Point", "coordinates": [30.194343554809745, 0.07807104904381273]}}, {"type": "Feature", "properties": {"norad_id": 37238, "name": "INTELSAT 17 (IS-17)", "group": "intelsat", "lat": -0.037190186733324394, "lon": -148.62561939122986, "alt_km": 35779.23860074688, "timestamp": "2025-12-03T04:52:29.309164+00:00", "meta": {"OBJECT_NAME": "INTELSAT 17 (IS-17)", "OBJECT_ID": "2010-065B", "EPOCH": "2025-12-02T20:14:45.063168", "MEAN_MOTION": 1.00272357, "ECCENTRICITY": 0.0002695, "INCLINATION": 0.0174, "RA_OF_ASC_NODE": 279.8981, "ARG_OF_PERICENTER": 345.8571, "MEAN_ANOMALY": 175.8812, "EPHEMERIS_TYPE": 0, "CLASSIFICATION_TYPE": "U", "NORAD_CAT_ID": 37238, "ELEMENT_SET_NO": 999, "REV_AT_EPOCH": 5127, "BSTAR": 0, "MEAN_MOTION_DOT": 1.8e-07, "MEAN_MOTION_DDOT": 0}, "tle": {"line1": "1 37238U 10065B   25336.84357712  .00000018  00000+0  00000+0 0  9998", "line2": "2 37238   0.0174 279.8981 0002695 345.8571 175.8812  1.00272357 51270"}}, "geometry": {"type": "Point", "coordinates": [-148.62561939122986, -0.037190186733324394]}}, {"type": "Feature", "properties": {"norad_id": 37392, "name": "INTELSAT 28 (IS-28)", "group": "intelsat", "lat": 0.6298258377191938, "lon": 113.65499270535696, "alt_km": 35799.835883401865, "timestamp": "2025-12-03T04:52:29.309178+00:00", "meta": {"OBJECT_NAME": "INTELSAT 28 (IS-28)", "OBJECT_ID": "2011-016A", "EPOCH": "2025-12-02T17:03:32.593824", "MEAN_MOTION": 1.00271495, "ECCENTRICITY": 0.000404, "INCLINATION": 1.2964, "RA_OF_ASC_NODE": 85.1745, "ARG_OF_PERICENTER": 171.8194, "MEAN_ANOMALY": 38.9987, "EPHEMERIS_TYPE": 0, "CLASSIFICATION_TYPE": "U", "NORAD_CAT_ID": 37392, "ELEMENT_SET_NO": 999, "REV_AT_EPOCH": 5131, "BSTAR": 0, "MEAN_MOTION_DOT": -2.05e-06, "MEAN_MOTION_DDOT": 0}, "tle": {"line1": "1 37392U 11016A   25336.71079391 -.00000205  00000+0  00000+0 0  9995", "line2": "2 37392   1.2964  85.1745 0004040 171.8194  38.9987  1.00271495 51310"}}, "geometry": {"type": "Point", "coordinates": [113.65499270535696, 0.6298258377191938]}}]}